[{"OBJECT_NAME":"HORS 2","OBJECT_ID":"2023-091AG","EPOCH":"2026-03-09T22:11:34.810944","MEAN_MOTION":15.2928008,"ECCENTRICITY":0.00098173,"INCLINATION":97.5195,"RA_OF_ASC_NODE":134.7443,"ARG_OF_PERICENTER":79.3164,"MEAN_ANOMALY":280.9181,"EPHEMERIS_TYPE":0,"CLASSIFICATION_TYPE":"U","NORAD_CAT_ID":57196,"ELEMENT_SET_NO":999,"REV_AT_EPOCH":14934,"BSTAR":0.00059338338,"MEAN_MOTION_DOT":0.00016821,"MEAN_MOTION_DDOT":0},{"OBJECT_NAME":"STARLINK-35853","OBJECT_ID":"2025-303Q","EPOCH":"2026-03-08T16:54:01.047456","MEAN_MOTION":15.27576586,"ECCENTRICITY":0.00012497,"INCLINATION":42.9964,"RA_OF_ASC_NODE":316.3452,"ARG_OF_PERICENTER":280.8737,"MEAN_ANOMALY":79.1974,"EPHEMERIS_TYPE":0,"CLASSIFICATION_TYPE":"U","NORAD_CAT_ID":67177,"ELEMENT_SET_NO":999,"REV_AT_EPOCH":1258,"BSTAR":0.00053714083,"MEAN_MOTION_DOT":0.00014547,"MEAN_MOTION_DDOT":0}]
